OBJECT_NAME,OBJECT_ID,EPOCH,MEAN_MOTION,ECCENTRICITY,INCLINATION,RA_OF_ASC_NODE,ARG_OF_PERICENTER,MEAN_ANOMALY,EPHEMERIS_TYPE,CLASSIFICATION_TYPE,NORAD_CAT_ID,ELEMENT_SET_NO,REV_AT_EPOCH,BSTAR,MEAN_MOTION_DOT,MEAN_MOTION_DDOT
CHUANGXIN 1-02 (CX-1-02),2008-056B,2026-06-06T22:38:00.034944,14.30150740,.00143411,98.6136,184.3120,165.5008,194.6588,0,U,33434,999,91715,.20399425E-4,.9E-7,0
STARS (KUKAI),2009-002G,2026-06-06T15:34:33.799584,14.95675111,.00079699,98.1540,104.5282,195.4498,164.6480,0,U,33498,999,93690,.42024941E-3,.4615E-4,0
KKS-1 (KISEKI),2009-002H,2026-06-06T19:10:55.536096,14.83097275,.00071923,98.1193,80.0770,334.4433,25.6423,0,U,33499,999,93465,.18860035E-3,.1481E-4,0
UK-DMC 2,2009-041C,2026-06-06T22:07:08.915808,14.76013483,.00013402,97.8828,293.1397,71.0441,289.0914,0,U,35683,999,90505,.98675347E-4,.63E-5,0
OCEANSAT-2,2009-051A,2026-06-06T21:44:03.522912,13.99663548,.00145856,98.2323,145.7827,267.5908,92.3589,0,U,35931,999,87789,.12163286E-3,.14E-5,0
SWISSCUBE,2009-051B,2026-06-05T11:15:38.778912,14.62458715,.00054307,98.4043,64.1532,246.3597,113.7034,0,U,35932,999,88744,.23506342E-3,.1141E-4,0
BEESAT-1,2009-051C,2026-06-06T23:29:05.404992,14.61704086,.00038936,98.3972,65.3456,257.6051,102.4714,0,U,35933,999,88769,.1913E-3,.904E-5,0
ITUPSAT1,2009-051E,2026-06-04T16:47:20.224032,14.60421767,.0006134,98.4056,62.2366,280.9538,79.0971,0,U,35935,999,88691,.20796E-3,.958E-5,0
DMSP 5D-3 F18 (USA 210),2009-057A,2026-06-06T22:59:27.374208,14.14891058,.00098869,98.9033,138.7496,282.0891,77.9175,0,U,35951,999,85814,.15208929E-3,.249E-5,0
PROBA-2,2009-059B,2026-06-06T18:52:40.261440,14.54857997,.00123231,98.2451,341.2838,317.2726,42.7512,0,U,36037,999,88001,.58854199E-4,.207E-5,0
YAOGAN-7,2009-069A,2026-06-06T15:54:46.042560,14.77999154,.00259795,98.0084,43.5945,74.1214,286.2857,0,U,36110,999,88807,.81100931E-4,.535E-5,0
XIWANG-1 (HOPE-1),2009-072B,2026-06-06T21:47:31.297632,13.16440458,.00067696,100.4028,111.9048,257.5510,102.4846,0,U,36122,999,79165,.82931211E-3,.272E-5,0
COSMOS 2463,2010-017A,2026-06-06T12:43:09.251616,13.71665075,.00367866,82.9609,257.5353,157.6992,213.3326,0,U,36519,999,80647,.59469892E-4,.69E-6,0
CARTOSAT-2B,2010-035A,2026-06-06T22:02:37.020192,14.78649633,.00103647,97.9953,208.5333,219.1509,140.8953,0,U,36795,999,85833,.14569402E-3,.1016E-4,0
TISAT 1,2010-035E,2026-06-06T15:55:06.827808,15.31307713,.00001069,98.0706,103.2819,46.3405,313.7844,0,U,36799,999,86609,.87698802E-3,.26497E-3,0
YAOGAN-10,2010-038A,2026-06-06T22:04:55.256736,14.85318783,.00017051,97.8979,181.4065,88.3358,29.8072,0,U,36834,999,85568,.255182E-3,.2139E-4,0
SHIJIAN-6 04B (SJ-6 04B),2010-051B,2026-06-06T22:41:20.341248,14.99290997,.00094048,97.8684,163.2515,346.2698,13.8267,0,U,37180,999,85414,.80985112E-4,.928E-5,0
FENGYUN 3B,2010-059A,2026-06-06T21:52:33.270816,14.14839922,.00214096,98.9619,203.8822,213.7876,224.4795,0,U,37214,999,80597,.18200021E-3,.307E-5,0
COSMO-SKYMED 4,2010-060A,2026-06-06T21:53:24.583776,14.82159958,.00014181,97.8887,341.6606,82.1640,277.9734,0,U,37216,999,84304,.18294963E-4,.93E-6,0
O/OREOS (USA 219),2010-062C,2026-06-05T21:04:28.196832,14.93695134,.00123709,71.9702,105.9546,87.8701,272.3886,0,U,37224,999,11495,.28689329E-3,.2979E-4,0
RESOURCESAT-2,2011-015A,2026-06-06T21:12:16.383744,14.21604277,.00101465,98.7645,225.3961,288.7944,71.2133,0,U,37387,999,78471,.59492129E-4,.86E-6,0
YOUTHSAT,2011-015B,2026-06-06T17:17:51.576576,14.25626010,.00148951,98.3677,132.2471,17.5863,155.8429,0,U,37388,999,78614,.10762411E-3,.214E-5,0
APRIZESAT 6,2011-044F,2026-06-05T12:23:27.282336,14.76898404,.00442385,98.2372,66.7773,122.3000,58.2477,0,U,37793,999,79542,.12179529E-3,.814E-5,0
JUGNU,2011-058B,2026-06-06T07:23:16.719360,14.13773989,.00185037,19.9622,14.5210,316.3264,216.4094,0,U,37839,999,75748,.96536503E-4,.452E-5,0
SRMSAT,2011-058D,2026-06-06T06:31:30.735264,14.11573396,.00119474,19.9704,125.5359,84.3565,18.6414,0,U,37841,999,75627,.65061068E-4,.385E-5,0
